{
    "links": {
        "self": "http://www.neowsapp.com/rest/v1/neo/3648869?api_key=iIulBulltgU6a56xZRHN4H3l9WmuAYTsLGpBGhQ2"
    },
    "id": "3648869",
    "neo_reference_id": "3648869",
    "name": "(2013 TX5)",
    "designation": "2013 TX5",
    "nasa_jpl_url": "http://ssd.jpl.nasa.gov/sbdb.cgi?sstr=3648869",
    "absolute_magnitude_h": 23.0,
    "estimated_diameter": {
        "kilometers": {
            "estimated_diameter_min": 0.0667659413,
            "estimated_diameter_max": 0.1492931834
        },
        "meters": {
            "estimated_diameter_min": 66.7659413495,
            "estimated_diameter_max": 149.2931834393
        },
        "miles": {
            "estimated_diameter_min": 0.0414864197,
            "estimated_diameter_max": 0.0927664547
        },
        "feet": {
            "estimated_diameter_min": 219.0483710172,
            "estimated_diameter_max": 489.807047955
        }
    },
    "is_potentially_hazardous_asteroid": false,
    "close_approach_data": [
        {
            "close_approach_date": "2013-09-30",
            "close_approach_date_full": "2013-Sep-30 17:14",
            "epoch_date_close_approach": 1380561240000,
            "relative_velocity": {
                "kilometers_per_second": "7.2291304851",
                "kilometers_per_hour": "26024.869746324",
                "miles_per_hour": "16170.8419820978"
            },
            "miss_distance": {
                "astronomical": "0.1706469566",
                "lunar": "66.3816661174",
                "kilometers": "25528421.229342442",
                "miles": "15862625.3922000196"
            },
            "orbiting_body": "Earth"
        }
    ],
    "orbital_data": {
        "orbit_id": "12",
        "orbit_determination_date": "2017-04-06 08:44:20",
        "first_observation_date": "2013-10-04",
        "last_observation_date": "2013-10-27",
        "data_arc_in_days": 23,
        "observations_used": 50,
        "orbit_uncertainty": "7",
        "minimum_orbit_intersection": ".1692",
        "jupiter_tisserand_invariant": "4.171",
        "epoch_osculation": "2459000.5",
        "eccentricity": ".3029078113389814",
        "semi_major_axis": "1.66807527501695",
        "inclination": "13.01121764549287",
        "ascending_node_longitude": "1.178196546790826",
        "orbital_period": "786.9042565406352",
        "perihelion_distance": "1.162802244312896",
        "perihelion_argument": "17.32914996421158",
        "aphelion_distance": "2.173348305721004",
        "perihelion_time": "2458937.482391095534",
        "mean_anomaly": "28.82985956301843",
        "mean_motion": ".4574889473626959",
        "equinox": "J2000",
        "orbit_class": {
            "orbit_class_type": "AMO",
            "orbit_class_description": "Near-Earth asteroid orbits similar to that of 1221 Amor",
            "orbit_class_range": "1.017 AU < q (perihelion) < 1.3 AU"
        }
    },
    "is_sentry_object": false
}